{"fetched_at":"2026-03-29T16:36:15Z","count":15609,"tles":[{"name":"SHIJIAN-30C (SJ-30C)","line1":"1 66547U 25266C   26087.78946605  .00011622  00000+0  62074-3 0  9990","line2":"2 66547  51.7975 196.0245 0010075 351.9789   8.1025 15.15488427 19669","category":"Other"}]}